OBJECT_NAME,OBJECT_ID,EPOCH,MEAN_MOTION,ECCENTRICITY,INCLINATION,RA_OF_ASC_NODE,ARG_OF_PERICENTER,MEAN_ANOMALY,EPHEMERIS_TYPE,CLASSIFICATION_TYPE,NORAD_CAT_ID,ELEMENT_SET_NO,REV_AT_EPOCH,BSTAR,MEAN_MOTION_DOT,MEAN_MOTION_DDOT
STARLINK-37820,2026-126D,2026-06-24T21:19:43.038048,15.79997966,.00013742,97.2835,36.3305,45.6188,314.5192,0,U,69423,999,396,.14872663E-2,.283472E-2,0
STARLINK-37822,2026-126E,2026-06-25T05:05:44.945664,15.75186947,.000172,97.2841,36.6552,74.4566,285.6889,0,U,69424,999,401,.10811226E-2,.164245E-2,0
STARLINK-37836,2026-126F,2026-06-23T20:59:55.296384,15.80036073,.00017517,97.2840,35.2601,111.0998,249.0457,0,U,69425,999,380,.15141882E-2,.2893E-2,0
STARLINK-37850,2026-126G,2026-06-25T06:00:02.000160,15.79983211,.00016504,97.2836,36.7142,92.8560,164.1329,0,U,69426,999,407,-.5841122E-3,-.106562E-2,0
STARLINK-37823,2026-126H,2026-06-25T06:00:02.000160,15.75230715,.00014837,97.2849,36.6795,88.5986,89.1453,0,U,69427,999,402,-.80379743E-3,-.118584E-2,0
STARLINK-37834,2026-126J,2026-06-25T05:27:05.887008,15.75199697,.00017541,97.2852,36.6345,85.2883,274.8582,0,U,69428,999,401,.82803995E-3,.12526E-2,0
STARLINK-37857,2026-126K,2026-06-25T06:00:02.000160,15.75247097,.00016171,97.2844,36.6870,93.0863,100.6440,0,U,69429,999,402,-.99676396E-3,-.146651E-2,0
STARLINK-37866,2026-126L,2026-06-24T21:17:53.904480,15.79999055,.00006364,97.2819,36.3311,72.3018,287.8320,0,U,69430,999,401,.18029249E-2,.346219E-2,0
STARLINK-37555,2026-126M,2026-06-25T03:22:08.260032,15.80823514,.00174031,97.2831,36.5993,194.8600,165.2160,0,U,69431,999,405,-.1040122E-1,-.1753661E-1,0
STARLINK-37870,2026-126N,2026-06-25T03:21:55.650816,15.81268558,.00060489,97.2838,36.6006,238.5329,121.5348,0,U,69432,999,400,.33435095E-2,.709742E-2,0
STARLINK-37872,2026-126P,2026-06-25T06:00:02.000160,15.79981314,.00016483,97.2836,36.7176,92.6460,171.5215,0,U,69433,999,402,-.5804335E-3,-.105891E-2,0
STARLINK-37815,2026-126Q,2026-06-25T04:06:47.479104,15.75249993,.00012964,97.2841,36.5573,86.8327,273.3087,0,U,69434,999,400,.96884503E-3,.147279E-2,0
STARLINK-37801,2026-126R,2026-06-25T06:00:02.000160,15.75243638,.00016688,97.2856,36.6754,89.1879,76.5449,0,U,69435,999,407,-.95521375E-3,-.140621E-2,0
STARLINK-37800,2026-126S,2026-06-25T03:49:31.557792,15.75176770,.00027056,97.2849,36.5737,50.4133,309.7371,0,U,69436,999,400,.15979111E-2,.24505E-2,0
STARLINK-37792,2026-126T,2026-06-25T03:20:54.797568,15.79941772,.00043068,97.2815,36.5996,61.6048,298.5654,0,U,69437,999,405,.16011339E-2,.305263E-2,0
STARLINK-37783,2026-126U,2026-06-25T03:20:22.467552,15.79985441,.00013573,97.2843,36.6023,119.0052,241.1352,0,U,69438,999,405,.63773595E-3,.11911E-2,0
STARLINK-37771,2026-126V,2026-06-25T04:12:53.469504,15.75249527,.00016638,97.2843,36.5505,96.9299,263.2156,0,U,69439,999,400,.81752047E-3,.123913E-2,0
STARLINK-37747,2026-126W,2026-06-24T03:03:29.503584,15.80846306,.00084633,97.2836,35.5288,284.3118,75.7210,0,U,69440,999,384,.32525731E-1,.7643341E-1,0
STARLINK-37629,2026-127A,2026-06-25T06:00:02.000160,15.75272109,.00011474,53.1591,222.3425,90.2577,343.9981,0,U,69443,999,393,-.4755829E-3,-.73019E-3,0
STARLINK-37509,2026-127B,2026-06-25T06:00:02.000160,15.75279737,.00011014,53.1596,222.2934,101.9869,356.1642,0,U,69444,999,393,-.6819166E-3,-.104077E-2,0
STARLINK-37641,2026-127C,2026-06-25T06:46:25.879008,15.75274025,.00011747,53.1588,221.9709,98.6736,261.4417,0,U,69445,999,268,.77642849E-3,.120267E-2,0
STARLINK-37522,2026-127D,2026-06-25T06:00:02.000160,15.75294888,.00011285,53.1597,222.2895,95.1170,4.8888,0,U,69446,999,393,-.76844661E-3,-.117101E-2,0
STARLINK-37640,2026-127E,2026-06-25T05:02:42.731520,15.80946677,.00014225,53.1574,222.2284,79.3324,280.7859,0,U,69447,999,267,.11387364E-2,.230947E-2,0
STARLINK-37572,2026-127F,2026-06-25T06:00:02.000160,15.75291966,.00011768,53.1599,222.1867,92.7022,56.9484,0,U,69448,999,393,-.72090997E-3,-.109975E-2,0
STARLINK-37643,2026-127G,2026-06-25T06:00:02.000160,15.75294020,.00010667,53.1600,222.2396,101.4091,22.4874,0,U,69449,999,393,-.72531501E-3,-.110643E-2,0
STARLINK-37601,2026-127H,2026-06-25T06:59:30.237216,15.75285172,.00012644,53.1599,222.0298,106.7940,253.3219,0,U,69450,999,268,.11919996E-2,.186539E-2,0
STARLINK-37578,2026-127J,2026-06-25T06:00:02.000160,15.75287541,.00011127,53.1589,222.0775,93.5488,109.4714,0,U,69451,999,393,-.69395159E-3,-.105916E-2,0
STARLINK-37577,2026-127K,2026-06-25T04:51:30.714912,15.80462881,.00020582,53.1577,222.1755,60.6124,299.5104,0,U,69452,999,267,-.20330884E-2,-.37781E-2,0
STARLINK-37500,2026-127L,2026-06-25T05:02:28.320864,15.75314742,.00022261,53.1583,222.2262,26.0044,334.1088,0,U,69453,999,267,.18931373E-2,.30112E-2,0
STARLINK-37575,2026-127M,2026-06-25T04:47:01.396608,15.80965675,.00015378,53.1582,222.1544,52.8982,307.2181,0,U,69454,999,267,.12526037E-2,.255052E-2,0
