[{"id":"69423","name":"STARLINK-37820","tle1":"1 69423U 26126D   26175.88869257  .00283472  00000+0  14873-2 0  9995","tle2":"2 69423  97.2835  36.3305 0001374  45.6188 314.5192 15.79997966  3968"},{"id":"69424","name":"STARLINK-37822","tle1":"1 69424U 26126E   26176.21232576  .00164245  00000+0  10811-2 0  9996","tle2":"2 69424  97.2841  36.6552 0001720  74.4566 285.6889 15.75186947  4011"},{"id":"69425","name":"STARLINK-37836","tle1":"1 69425U 26126F   26174.87494556  .00289300  00000+0  15142-2 0  9997","tle2":"2 69425  97.2840  35.2601 0001751 111.0998 249.0457 15.80036073  3803"},{"id":"69426","name":"STARLINK-37850","tle1":"1 69426U 26126G   26176.25002315 -.00106562  00000+0 -58411-3 0  9997","tle2":"2 69426  97.2836  36.7142 0001650  92.8560 164.1329 15.79983211  4072"},{"id":"69427","name":"STARLINK-37823","tle1":"1 69427U 26126H   26176.25002315 -.00118584  00000+0 -80380-3 0  9995","tle2":"2 69427  97.2849  36.6795 0001483  88.5986  89.1453 15.75230715  4027"},{"id":"69428","name":"STARLINK-37834","tle1":"1 69428U 26126J   26176.22715147  .00125260  00000+0  82804-3 0  9997","tle2":"2 69428  97.2852  36.6345 0001754  85.2883 274.8582 15.75199697  4012"},{"id":"69429","name":"STARLINK-37857","tle1":"1 69429U 26126K   26176.25002315 -.00146651  00000+0 -99676-3 0  9991","tle2":"2 69429  97.2844  36.6870 0001617  93.0863 100.6440 15.75247097  4028"},{"id":"69430","name":"STARLINK-37866","tle1":"1 69430U 26126L   26175.88742945  .00346219  00000+0  18029-2 0  9993","tle2":"2 69430  97.2819  36.3311 0000636  72.3018 287.8320 15.79999055  4017"},{"id":"69431","name":"STARLINK-37555","tle1":"1 69431U 26126M   26176.14037338 -.01753661  00000+0 -10401-1 0  9998","tle2":"2 69431  97.2831  36.5993 0017403 194.8600 165.2160 15.80823514  4050"},{"id":"69432","name":"STARLINK-37870","tle1":"1 69432U 26126N   26176.14022744  .00709742  00000+0  33435-2 0  9995","tle2":"2 69432  97.2838  36.6006 0006048 238.5329 121.5348 15.81268558  4001"},{"id":"69433","name":"STARLINK-37872","tle1":"1 69433U 26126P   26176.25002315 -.00105891  00000+0 -58043-3 0  9990","tle2":"2 69433  97.2836  36.7176 0001648  92.6460 171.5215 15.79981314  4024"},{"id":"69434","name":"STARLINK-37815","tle1":"1 69434U 26126Q   26176.17138286  .00147279  00000+0  96885-3 0  9999","tle2":"2 69434  97.2841  36.5573 0001296  86.8327 273.3087 15.75249993  4008"},{"id":"69435","name":"STARLINK-37801","tle1":"1 69435U 26126R   26176.25002315 -.00140621  00000+0 -95521-3 0  9994","tle2":"2 69435  97.2856  36.6754 0001668  89.1879  76.5449 15.75243638  4070"},{"id":"69436","name":"STARLINK-37800","tle1":"1 69436U 26126S   26176.15939303  .00245050  00000+0  15979-2 0  9998","tle2":"2 69436  97.2849  36.5737 0002705  50.4133 309.7371 15.75176770  4000"},{"id":"69437","name":"STARLINK-37792","tle1":"1 69437U 26126T   26176.13952312  .00305263  00000+0  16011-2 0  9993","tle2":"2 69437  97.2815  36.5996 0004306  61.6048 298.5654 15.79941772  4059"},{"id":"69438","name":"STARLINK-37783","tle1":"1 69438U 26126U   26176.13914893  .00119110  00000+0  63774-3 0  9999","tle2":"2 69438  97.2843  36.6023 0001357 119.0052 241.1352 15.79985441  4059"},{"id":"69439","name":"STARLINK-37771","tle1":"1 69439U 26126V   26176.17561886  .00123913  00000+0  81752-3 0  9996","tle2":"2 69439  97.2843  36.5505 0001663  96.9299 263.2156 15.75249527  4006"},{"id":"69440","name":"STARLINK-37747","tle1":"1 69440U 26126W   26175.12742481  .07643341  00000+0  32526-1 0  9996","tle2":"2 69440  97.2836  35.5288 0008463 284.3118  75.7210 15.80846306  3847"},{"id":"69443","name":"STARLINK-37629","tle1":"1 69443U 26127A   26176.25002315 -.00073019  00000+0 -47558-3 0  9997","tle2":"2 69443  53.1591 222.3425 0001147  90.2577 343.9981 15.75272109  3936"},{"id":"69444","name":"STARLINK-37509","tle1":"1 69444U 26127B   26176.25002315 -.00104077  00000+0 -68192-3 0  9994","tle2":"2 69444  53.1596 222.2934 0001101 101.9869 356.1642 15.75279737  3934"},{"id":"69445","name":"STARLINK-37641","tle1":"1 69445U 26127C   26176.28224397  .00120267  00000+0  77643-3 0  9992","tle2":"2 69445  53.1588 221.9709 0001174  98.6736 261.4417 15.75274025  2681"},{"id":"69446","name":"STARLINK-37522","tle1":"1 69446U 26127D   26176.25002315 -.00117101  00000+0 -76845-3 0  9992","tle2":"2 69446  53.1597 222.2895 0001128  95.1170   4.8888 15.75294888  3934"},{"id":"69447","name":"STARLINK-37640","tle1":"1 69447U 26127E   26176.21021680  .00230947  00000+0  11387-2 0  9996","tle2":"2 69447  53.1574 222.2284 0001422  79.3324 280.7859 15.80946677  2673"},{"id":"69448","name":"STARLINK-37572","tle1":"1 69448U 26127F   26176.25002315 -.00109975  00000+0 -72091-3 0  9993","tle2":"2 69448  53.1599 222.1867 0001176  92.7022  56.9484 15.75291966  3932"},{"id":"69449","name":"STARLINK-37643","tle1":"1 69449U 26127G   26176.25002315 -.00110643  00000+0 -72532-3 0  9998","tle2":"2 69449  53.1600 222.2396 0001066 101.4091  22.4874 15.75294020  3931"},{"id":"69450","name":"STARLINK-37601","tle1":"1 69450U 26127H   26176.29132219  .00186539  00000+0  11920-2 0  9999","tle2":"2 69450  53.1599 222.0298 0001264 106.7940 253.3219 15.75285172  2687"},{"id":"69451","name":"STARLINK-37578","tle1":"1 69451U 26127J   26176.25002315 -.00105916  00000+0 -69395-3 0  9991","tle2":"2 69451  53.1589 222.0775 0001112  93.5488 109.4714 15.75287541  3931"},{"id":"69452","name":"STARLINK-37577","tle1":"1 69452U 26127K   26176.20243883 -.00377810  00000+0 -20331-2 0  9994","tle2":"2 69452  53.1577 222.1755 0002058  60.6124 299.5104 15.80462881  2672"},{"id":"69453","name":"STARLINK-37500","tle1":"1 69453U 26127L   26176.21005001  .00301120  00000+0  18931-2 0  9996","tle2":"2 69453  53.1583 222.2262 0002226  26.0044 334.1088 15.75314742  2671"},{"id":"69454","name":"STARLINK-37575","tle1":"1 69454U 26127M   26176.19932172  .00255052  00000+0  12526-2 0  9998","tle2":"2 69454  53.1582 222.1544 0001537  52.8982 307.2181 15.80965675  2673"}]